ONEWEB-0697             
1 61603U 24188K   26012.80816627 -.00000171  00000+0 -51905-3 0  9991
2 61603  87.8821  52.0039 0001150 116.8113 243.3132 13.11415279 64089
ONEWEB-0698             
1 61604U 24188L   26012.86244542  .00000490  00000+0  13460-2 0  9994
2 61604  87.8823  52.0085 0000747  66.3945 293.7262 13.11417590 64111
ONEWEB-0699             
1 61605U 24188M   26012.90437067  .00000581  00000+0  16286-2 0  9996
2 61605  87.8783  67.2159 0001205 112.0915 248.0340 13.10372070 62977
ONEWEB-0700             
1 61606U 24188N   26012.90603233  .00000647  00000+0  18176-2 0  9990
2 61606  87.8793  67.1039 0001743 124.1426 235.9866 13.10372509 62967
ONEWEB-0701             
1 61607U 24188P   26012.84626031 -.00000024  00000+0 -10499-3 0  9997
2 61607  87.8775  67.2278 0001077 120.6441 239.4792 13.10370022 62967
ONEWEB-0702             
1 61608U 24188Q   26012.83188571 -.00000487  00000+0 -14095-2 0  9997
2 61608  87.8817  51.8969 0001259 132.7540 227.3694 13.11417514 64123
ONEWEB-0704             
1 61609U 24188R   26012.83464663  .00000536  00000+0  15004-2 0  9991
2 61609  87.8795  67.1994 0001452 132.8847 227.2403 13.10370844 62941
ONEWEB-0705             
1 61610U 24188S   26012.83962777  .00000369  00000+0  10206-2 0  9995
2 61610  87.8784  67.2173 0002509 126.5185 233.6174 13.10369919 55118
